NORAD_CAT_ID,OBJECT_NAME,OBJECT_TYPE,EPOCH,MEAN_MOTION,ECCENTRICITY,INCLINATION,RA_OF_ASC_NODE,ARG_OF_PERICENTER,MEAN_ANOMALY,BSTAR,MEAN_MOTION_DOT,MEAN_MOTION_DDOT,TLE_LINE0,TLE_LINE1,TLE_LINE2,SEMIMAJOR_AXIS,PERIOD,APOGEE,PERIGEE,DECAYED
50820.0,STARLINK-3339,PAYLOAD,2024-07-25 07:11:05,15.08839175,0.0001266,53.218,308.4671,99.9903,260.1232,1.6759e-05,-2.1e-07,0.0,0 STARLINK-3339,1 50820U 22001T   24207.29937219 -.00000021  00000-0  16759-4 0  9993,2 50820  53.2180 308.4671 0001266  99.9903 260.1232 15.08839175140973,6917.883,95.438,540.624,538.872,0.0
50820.0,STARLINK-3339,PAYLOAD,2024-07-25 10:21:52,15.0883947,0.0001248,53.2179,307.8726,99.277,260.8363,2.128e-05,5.1e-07,0.0,0 STARLINK-3339,1 50820U 22001T   24207.43185218  .00000051  00000-0  21280-4 0  9990,2 50820  53.2179 307.8726 0001248  99.2770 260.8363 15.08839470140992,6917.882,95.438,540.61,538.884,0.0
50820.0,STARLINK-3339,PAYLOAD,2024-07-26 10:12:39,15.08838209,0.0001141,53.2174,303.411,86.8653,273.247,0.00011053,1.472e-05,0.0,0 STARLINK-3339,1 50820U 22001T   24208.42545233  .00001472  00000-0  11053-3 0  9991,2 50820  53.2174 303.4110 0001141  86.8653 273.2470 15.08838209142426,6917.886,95.438,540.54,538.962,0.0
50820.0,STARLINK-3339,PAYLOAD,2024-07-26 14:58:48,15.08841768,0.0001321,53.2173,302.5194,89.7916,270.3228,0.00013424,1.849e-05,0.0,0 STARLINK-3339,1 50820U 22001T   24208.62416946  .00001849  00000-0  13424-3 0  9993,2 50820  53.2173 302.5194 0001321  89.7916 270.3228 15.08841768141175,6917.875,95.437,540.654,538.826,0.0
50820.0,STARLINK-3339,PAYLOAD,2024-07-27 10:03:26,15.08834291,0.0001334,53.2177,298.9508,87.2553,272.8591,2.2168e-05,6.5e-07,0.0,0 STARLINK-3339,1 50820U 22001T   24209.41905984  .00000065  00000-0  22168-4 0  9991,2 50820  53.2177 298.9508 0001334  87.2553 272.8591 15.08834291142578,6917.898,95.438,540.686,538.84,0.0
50820.0,STARLINK-3339,PAYLOAD,2024-07-27 14:49:36,15.08831657,0.000131,53.2176,298.0587,85.965,274.1491,-2.1775e-06,-3.23e-06,0.0,0 STARLINK-3339,1 50820U 22001T   24209.61778307 -.00000323  00000-0 -21775-5 0  9993,2 50820  53.2176 298.0587 0001310  85.9650 274.1491 15.08831657141321,6917.906,95.438,540.677,538.865,0.0
50820.0,STARLINK-3339,PAYLOAD,2024-07-28 13:04:59,15.08846394,0.000174,53.2172,293.8951,104.0066,256.112,9.6236e-05,1.244e-05,0.0,0 STARLINK-3339,1 50820U 22001T   24210.54513299  .00001244  00000-0  96236-4 0  9998,2 50820  53.2172 293.8951 0001740 104.0066 256.1120 15.08846394142746,6917.861,95.437,540.93,538.522,0.0
50820.0,STARLINK-3339,PAYLOAD,2024-07-28 22:37:17,15.08849138,0.0001484,53.2172,292.111,85.3326,274.7836,0.00019975,2.893e-05,0.0,0 STARLINK-3339,1 50820U 22001T   24210.94256851  .00002893  00000-0  19975-3 0  9995,2 50820  53.2172 292.1110 0001484  85.3326 274.7836 15.08849138141524,6917.852,95.437,540.744,538.691,0.0
50820.0,STARLINK-3339,PAYLOAD,2024-07-29 09:45:01,15.08830464,0.0001405,53.2155,290.0315,86.433,273.6822,6.869e-05,8.05e-06,0.0,0 STARLINK-3339,1 50820U 22001T   24211.40626518  .00000805  00000-0  68690-4 0  9998,2 50820  53.2155 290.0315 0001405  86.4330 273.6822 15.08830464142873,6917.91,95.438,540.747,538.803,0.0
50820.0,STARLINK-3339,PAYLOAD,2024-07-29 22:28:07,15.08827604,0.0001221,53.2183,287.6507,80.3659,279.7472,3.3309e-06,-2.35e-06,0.0,0 STARLINK-3339,1 50820U 22001T   24211.93619347 -.00000235  00000-0  33309-5 0  9996,2 50820  53.2183 287.6507 0001221  80.3659 279.7472 15.08827604141679,6917.918,95.438,540.628,538.939,0.0
50820.0,STARLINK-3339,PAYLOAD,2024-07-30 11:11:09,15.08870366,0.0001282,53.2164,285.2714,99.4988,260.6149,0.0002267,3.325e-05,0.0,0 STARLINK-3339,1 50820U 22001T   24212.46608283  .00003325  00000-0  22670-3 0  9991,2 50820  53.2164 285.2714 0001282  99.4988 260.6149 15.08870366143030,6917.788,95.436,540.539,538.766,0.0
50820.0,STARLINK-3339,PAYLOAD,2024-07-30 14:21:54,15.08880206,0.0001347,53.2164,284.677,96.1645,263.9501,0.0003067,4.602e-05,0.0,0 STARLINK-3339,1 50820U 22001T   24212.59855280  .00004602  00000-0  30670-3 0  9994,2 50820  53.2164 284.6770 0001347  96.1645 263.9501 15.08880206141772,6917.757,95.435,540.554,538.691,0.0
50820.0,STARLINK-3339,PAYLOAD,2024-07-31 11:01:57,15.08849314,0.0001161,53.2181,280.8117,78.5678,281.5445,0.00025981,3.85e-05,0.0,0 STARLINK-3339,1 50820U 22001T   24213.45968767  .00003850  00000-0  25981-3 0  9998,2 50820  53.2181 280.8117 0001161  78.5678 281.5445 15.08849314141901,6917.852,95.437,540.52,538.914,0.0
50820.0,STARLINK-3339,PAYLOAD,2024-08-01 10:52:44,15.08863358,0.0001211,53.2169,276.3529,77.2473,282.8655,-0.00020134,-3.493e-05,0.0,0 STARLINK-3339,1 50820U 22001T   24214.45329217 -.00003493  00000-0 -20134-3 0  9990,2 50820  53.2169 276.3529 0001211  77.2473 282.8655 15.08863358143339,6917.809,95.436,540.512,538.836,0.0
50820.0,STARLINK-3339,PAYLOAD,2024-08-02 10:43:32,15.0882874,0.0001293,53.2171,271.8901,73.1228,286.9906,4.5579e-05,4.37e-06,0.0,0 STARLINK-3339,1 50820U 22001T   24215.44690290  .00000437  00000-0  45579-4 0  9996,2 50820  53.2171 271.8901 0001293  73.1228 286.9906 15.08828740143485,6917.915,95.438,540.674,538.885,0.0
50820.0,STARLINK-3339,PAYLOAD,2024-08-02 13:54:18,15.08826595,0.0001291,53.217,271.296,72.5018,287.6115,2.8097e-05,1.59e-06,0.0,0 STARLINK-3339,1 50820U 22001T   24215.57938608  .00000159  00000-0  28097-4 0  9995,2 50820  53.2170 271.2960 0001291  72.5018 287.6115 15.08826595142228,6917.921,95.438,540.679,538.893,0.0
50820.0,STARLINK-3339,PAYLOAD,2024-08-02 20:15:51,15.08833302,0.0001314,53.2173,270.1073,74.0482,286.0654,8.125e-05,1.005e-05,0.0,0 STARLINK-3339,1 50820U 22001T   24215.84434158  .00001005  00000-0  81250-4 0  9997,2 50820  53.2173 270.1073 0001314  74.0482 286.0654 15.08833302142261,6917.901,95.438,540.675,538.857,0.0
50820.0,STARLINK-3339,PAYLOAD,2024-08-03 10:34:19,15.08840382,0.0001272,53.2162,267.4328,80.2177,279.8959,6.0493e-05,6.75e-06,0.0,0 STARLINK-3339,1 50820U 22001T   24216.44049951  .00000675  00000-0  60493-4 0  9995,2 50820  53.2162 267.4328 0001272  80.2177 279.8959 15.08840382143630,6917.879,95.438,540.624,538.864,0.0
50820.0,STARLINK-3339,PAYLOAD,2024-08-04 10:25:06,15.08835642,0.0001308,53.2164,262.9719,79.3797,280.7342,0.00012405,1.687e-05,0.0,0 STARLINK-3339,1 50820U 22001T   24217.43410249  .00001687  00000-0  12405-3 0  9990,2 50820  53.2164 262.9719 0001308  79.3797 280.7342 15.08835642142508,6917.894,95.438,540.664,538.854,0.0
50820.0,STARLINK-3339,PAYLOAD,2024-08-04 19:57:24,15.08850467,0.0001339,53.2163,261.1876,79.4976,280.6167,0.00020931,3.046e-05,0.0,0 STARLINK-3339,1 50820U 22001T   24217.83153150  .00003046  00000-0  20931-3 0  9993,2 50820  53.2163 261.1876 0001339  79.4976 280.6167 15.08850467143840,6917.848,95.437,540.64,538.787,0.0
50820.0,STARLINK-3339,PAYLOAD,2024-08-05 02:18:57,15.08842629,0.0002211,53.216,259.9981,82.5761,277.5483,0.00011459,1.536e-05,0.0,0 STARLINK-3339,1 50820U 22001T   24218.09650142  .00001536  00000-0  11459-3 0  9992,2 50820  53.2160 259.9981 0002211  82.5761 277.5483 15.08842629143887,6917.872,95.437,541.267,538.208,0.0
50820.0,STARLINK-3339,PAYLOAD,2024-08-05 19:48:12,15.08841206,0.0001537,53.2163,256.7259,79.521,280.5956,4.5458e-05,4.36e-06,0.0,0 STARLINK-3339,1 50820U 22001T   24218.82514446  .00000436  00000-0  45458-4 0  9994,2 50820  53.2163 256.7259 0001537  79.5210 280.5956 15.08841206143999,6917.877,95.437,540.805,538.678,0.0
50820.0,STARLINK-3339,PAYLOAD,2024-08-06 06:55:54,15.08838169,0.0001559,53.2164,254.6443,84.4324,275.6846,3.6474e-05,2.92e-06,0.0,0 STARLINK-3339,1 50820U 22001T   24219.28882756  .00000292  00000-0  36474-4 0  9995,2 50820  53.2164 254.6443 0001559  84.4324 275.6846 15.08838169142780,6917.886,95.438,540.829,538.672,0.0
50820.0,STARLINK-3339,PAYLOAD,2024-08-07 02:00:32,15.08839597,0.0001557,53.2145,251.0763,86.9806,273.1364,0.00027182,4.041e-05,0.0,0 STARLINK-3339,1 50820U 22001T   24220.08370589  .00004041  00000-0  27182-3 0  9992,2 50820  53.2145 251.0763 0001557  86.9806 273.1364 15.08839597144185,6917.882,95.438,540.824,538.67,0.0
50820.0,STARLINK-3339,PAYLOAD,2024-08-07 11:32:50,15.08848167,0.0001549,53.2149,249.2901,92.5141,267.6029,0.00027672,4.12e-05,0.0,0 STARLINK-3339,1 50820U 22001T   24220.48114192  .00004120  00000-0  27672-3 0  9994,2 50820  53.2149 249.2901 0001549  92.5141 267.6029 15.08848167142961,6917.855,95.437,540.792,538.649,0.0
50820.0,STARLINK-3339,PAYLOAD,2024-08-08 11:23:37,15.08842691,0.00015,53.2144,244.8295,89.9351,270.1813,8.73e-05,1.102e-05,0.0,0 STARLINK-3339,1 50820U 22001T   24221.47474377  .00001102  00000-0  87300-4 0  9990,2 50820  53.2144 244.8295 0001500  89.9351 270.1813 15.08842691144398,6917.872,95.437,540.775,538.699,0.0
50820.0,STARLINK-3339,PAYLOAD,2024-08-09 11:14:24,15.08845645,0.0001394,53.2153,240.3685,93.0464,267.0687,1.799e-05,-2e-08,0.0,0 STARLINK-3339,1 50820U 22001T   24222.46834081 -.00000002  00000-0  17990-4 0  9999,2 50820  53.2153 240.3685 0001394  93.0464 267.0687 15.08845645143265,6917.863,95.437,540.692,538.764,0.0
50820.0,STARLINK-3339,PAYLOAD,2024-08-10 04:43:39,15.08838257,0.000136,53.2153,237.0973,91.9686,268.1462,7.7035e-05,9.38e-06,0.0,0 STARLINK-3339,1 50820U 22001T   24223.19698315  .00000938  00000-0  77035-4 0  9991,2 50820  53.2153 237.0973 0001360  91.9686 268.1462 15.08838257144652,6917.886,95.438,540.692,538.81,0.0
50820.0,STARLINK-3339,PAYLOAD,2024-08-10 11:05:12,15.0883716,0.000136,53.2152,235.9081,91.392,268.7228,5.8917e-05,6.5e-06,0.0,0 STARLINK-3339,1 50820U 22001T   24223.46194463  .00000650  00000-0  58917-4 0  9995,2 50820  53.2152 235.9081 0001360  91.3920 268.7228 15.08837160143414,6917.889,95.438,540.695,538.813,0.0
50820.0,STARLINK-3339,PAYLOAD,2024-08-11 07:45:13,15.0883577,0.0001324,53.2151,232.043,89.4643,270.6501,2.28e-05,7.5e-07,0.0,0 STARLINK-3339,1 50820U 22001T   24224.32306900  .00000075  00000-0  22800-4 0  9995,2 50820  53.2151 232.0430 0001324  89.4643 270.6501 15.08835770144826,6917.893,95.438,540.674,538.842,0.0
